NORAD_CAT_ID,OBJECT_NAME,OBJECT_TYPE,EPOCH,MEAN_MOTION,ECCENTRICITY,INCLINATION,RA_OF_ASC_NODE,ARG_OF_PERICENTER,MEAN_ANOMALY,BSTAR,MEAN_MOTION_DOT,MEAN_MOTION_DDOT,TLE_LINE0,TLE_LINE1,TLE_LINE2,SEMIMAJOR_AXIS,PERIOD,APOGEE,PERIGEE,DECAYED
53010.0,STARLINK-4263,PAYLOAD,2023-02-27 21:51:28,15.08847393,8.27e-05,53.2193,18.1539,79.8459,280.2626,0.00039672,6.033e-05,0.0,0 STARLINK-4263,1 53010U 22076AA  23058.91074785  .00006033  00000-0  39672-3 0  9997,2 53010  53.2193  18.1539 0000827  79.8459 280.2626 15.08847393 35912,6917.858,95.437,540.295,539.151,0.0
53010.0,STARLINK-4263,PAYLOAD,2023-02-28 04:13:00,15.08866479,9.3e-05,53.2193,16.9653,90.3763,269.7336,0.0013778,0.00021724,0.0,0 STARLINK-4263,1 53010U 22076AA  23059.17570561  .00021724  00000-0  13778-2 0  9991,2 53010  53.2193  16.9653 0000930  90.3763 269.7336 15.08866479 36429,6917.799,95.436,540.308,539.021,0.0
53010.0,STARLINK-4263,PAYLOAD,2023-03-01 04:03:49,15.08811402,0.0001307,53.2176,12.5054,125.1229,234.9886,-2.6996e-05,-7.17e-06,0.0,0 STARLINK-4263,1 53010U 22076AA  23060.16932341 -.00000717  00000-0 -26996-4 0  9999,2 53010  53.2176  12.5054 0001307 125.1229 234.9886 15.08811402 36576,6917.968,95.439,540.737,538.929,0.0
53010.0,STARLINK-4263,PAYLOAD,2023-03-01 08:49:59,15.08825817,0.0001341,53.2179,11.6117,127.7613,232.3501,0.00062922,9.736e-05,0.0,0 STARLINK-4263,1 53010U 22076AA  23060.36804464  .00009736  00000-0  62922-3 0  9991,2 53010  53.2179  11.6117 0001341 127.7613 232.3501 15.08825817 36607,6917.924,95.438,540.716,538.861,0.0
53010.0,STARLINK-4263,PAYLOAD,2023-03-02 02:19:13,15.08851633,0.0001227,53.2177,8.3414,120.0017,240.1097,0.0017712,0.00028022,0.0,0 STARLINK-4263,1 53010U 22076AA  23061.09668201  .00028022  00000-0  17712-2 0  9994,2 53010  53.2177   8.3414 0001227 120.0017 240.1097 15.08851633 36719,6917.845,95.437,540.559,538.861,0.0
53010.0,STARLINK-4263,PAYLOAD,2023-03-02 05:29:58,15.08882797,0.0001338,53.2174,7.7466,132.829,227.2815,0.0018288,0.00028971,0.0,0 STARLINK-4263,1 53010U 22076AA  23061.22915437  .00028971  00000-0  18288-2 0  9997,2 53010  53.2174   7.7466 0001338 132.8290 227.2815 15.08882797 36262,6917.75,95.435,540.54,538.689,0.0
53010.0,STARLINK-4263,PAYLOAD,2023-03-03 05:20:45,15.08878151,0.0001619,53.2177,3.2861,138.7203,221.3912,0.0024271,0.00038592,0.0,0 STARLINK-4263,1 53010U 22076AA  23062.22275006  .00038592  00000-0  24271-2 0  9998,2 53010  53.2177   3.2861 0001619 138.7203 221.3912 15.08878151 36886,6917.764,95.435,540.749,538.509,0.0
53010.0,STARLINK-4263,PAYLOAD,2023-03-04 02:00:45,15.08879882,0.0001137,53.2197,359.4213,115.2447,244.8663,0.001563,0.00024702,0.0,0 STARLINK-4263,1 53010U 22076AA  23063.08385969  .00024702  00000-0  15630-2 0  9990,2 53010  53.2197 359.4213 0001137 115.2447 244.8663 15.08879882 37011,6917.758,95.435,540.41,538.837,0.0
53010.0,STARLINK-4263,PAYLOAD,2023-03-05 06:37:43,15.08842838,0.0001153,53.2189,354.0678,62.3412,297.7697,0.0012234,0.00019237,0.0,0 STARLINK-4263,1 53010U 22076AA  23064.27619334  .00019237  00000-0  12234-2 0  9992,2 53010  53.2189 354.0678 0001153  62.3412 297.7697 15.08842838 37194,6917.872,95.437,540.534,538.939,0.0
53010.0,STARLINK-4263,PAYLOAD,2023-03-05 22:31:34,15.08829281,0.0001218,53.2197,351.0971,88.7346,271.3786,0.0017519,0.00027695,0.0,0 STARLINK-4263,1 53010U 22076AA  23064.93859693  .00027695  00000-0  17519-2 0  9997,2 53010  53.2197 351.0971 0001218  88.7346 271.3786 15.08829281 37291,6917.913,95.438,540.621,538.936,0.0
53010.0,STARLINK-4263,PAYLOAD,2023-03-06 04:53:06,15.08886824,0.0001173,53.2182,349.9056,68.2732,291.8385,0.0030006,0.00047852,0.0,0 STARLINK-4263,1 53010U 22076AA  23065.20355096  .00047852  00000-0  30006-2 0  9999,2 53010  53.2182 349.9056 0001173  68.2732 291.8385 15.08886824 37330,6917.737,95.435,540.414,538.791,0.0
53010.0,STARLINK-4263,PAYLOAD,2023-03-06 19:11:35,15.0882741,5.9e-05,53.2186,347.2303,67.7843,292.3211,0.00090505,0.0001414,0.0,0 STARLINK-4263,1 53010U 22076AA  23065.79972046  .00014140  00000-0  90505-3 0  9998,2 53010  53.2186 347.2303 0000590  67.7843 292.3211 15.08827410 37429,6917.919,95.438,540.192,539.376,0.0
53010.0,STARLINK-4263,PAYLOAD,2023-03-07 01:33:08,15.08850247,7.45e-05,53.2181,346.0408,97.7793,262.3283,0.0022962,0.00036455,0.0,0 STARLINK-4263,1 53010U 22076AA  23066.06468019  .00036455  00000-0  22962-2 0  9993,2 53010  53.2181 346.0408 0000745  97.7793 262.3283 15.08850247 37460,6917.849,95.437,540.229,539.199,0.0
53010.0,STARLINK-4263,PAYLOAD,2023-03-07 19:02:22,15.0886654,9.59e-05,53.2178,342.7677,83.6425,276.4676,0.0019382,0.00030716,0.0,0 STARLINK-4263,1 53010U 22076AA  23066.79331972  .00030716  00000-0  19382-2 0  9996,2 53010  53.2178 342.7677 0000959  83.6425 276.4676 15.08866540 37577,6917.799,95.436,540.328,539.001,0.0
53010.0,STARLINK-4263,PAYLOAD,2023-03-08 04:34:40,15.08880128,8.64e-05,53.2177,340.9845,76.2079,283.9009,0.0016742,0.00026487,0.0,0 STARLINK-4263,1 53010U 22076AA  23067.19075189  .00026487  00000-0  16742-2 0  9993,2 53010  53.2177 340.9845 0000864  76.2079 283.9009 15.08880128 37639,6917.758,95.435,540.22,539.025,0.0
53010.0,STARLINK-4263,PAYLOAD,2023-03-08 23:39:20,15.08829212,0.0001013,53.2177,337.4192,140.3688,219.7378,0.0024358,0.00038679,0.0,0 STARLINK-4263,1 53010U 22076AA  23067.98565170  .00038679  00000-0  24358-2 0  9992,2 53010  53.2177 337.4192 0001013 140.3688 219.7378 15.08829212 37757,6917.913,95.438,540.479,539.078,0.0
53010.0,STARLINK-4263,PAYLOAD,2023-03-09 21:54:43,15.0886573,9.9e-05,53.2165,333.2546,158.3563,201.7471,0.0017408,0.00027545,0.0,0 STARLINK-4263,1 53010U 22076AA  23068.91300841  .00027545  00000-0  17408-2 0  9996,2 53010  53.2165 333.2546 0000990 158.3563 201.7471 15.08865730 37429,6917.802,95.436,540.352,538.982,0.0
53010.0,STARLINK-4263,PAYLOAD,2023-03-10 01:05:30,15.08892681,8.39e-05,53.2178,332.6608,70.5225,289.5858,0.0027403,0.00043657,0.0,0 STARLINK-4263,1 53010U 22076AA  23069.04548724  .00043657  00000-0  27403-2 0  9993,2 53010  53.2178 332.6608 0000839  70.5225 289.5858 15.08892681 37919,6917.719,95.434,540.165,539.004,0.0
53010.0,STARLINK-4263,PAYLOAD,2023-03-10 10:37:49,15.08866105,0.0001523,53.2168,330.8765,54.8692,305.2442,0.00080359,0.00012533,0.0,0 STARLINK-4263,1 53010U 22076AA  23069.44292867  .00012533  00000-0  80359-3 0  9990,2 53010  53.2168 330.8765 0001523  54.8692 305.2442 15.08866105 37979,6917.801,95.436,540.719,538.612,0.0
53010.0,STARLINK-4263,PAYLOAD,2023-03-10 21:45:31,15.08829957,8.54e-05,53.2175,328.7941,48.6307,311.4758,0.0010865,0.00017041,0.0,0 STARLINK-4263,1 53010U 22076AA  23069.90661368  .00017041  00000-0  10865-2 0  9990,2 53010  53.2175 328.7941 0000854  48.6307 311.4758 15.08829957 37578,6917.911,95.438,540.367,539.185,0.0
53010.0,STARLINK-4263,PAYLOAD,2023-03-11 02:31:40,15.08846526,8.52e-05,53.2168,327.9001,52.4632,307.6438,0.0029496,0.00046976,0.0,0 STARLINK-4263,1 53010U 22076AA  23070.10533502  .00046976  00000-0  29496-2 0  9991,2 53010  53.2168 327.9001 0000852  52.4632 307.6438 15.08846526 38079,6917.86,95.437,540.315,539.136,0.0
53010.0,STARLINK-4263,PAYLOAD,2023-03-12 02:22:27,15.08871178,0.0001345,53.2168,323.437,49.1734,310.9375,0.0012757,0.0002009,0.0,0 STARLINK-4263,1 53010U 22076AA  23071.09892810  .00020090  00000-0  12757-2 0  9991,2 53010  53.2168 323.4370 0001345  49.1734 310.9375 15.08871178 38228,6917.785,95.436,540.581,538.72,0.0
53010.0,STARLINK-4263,PAYLOAD,2023-03-13 02:13:14,15.08849446,0.0001575,53.2174,318.9782,58.4076,301.7069,0.00034872,5.268e-05,0.0,0 STARLINK-4263,1 53010U 22076AA  23072.09252796  .00005268  00000-0  34872-3 0  9998,2 53010  53.2174 318.9782 0001575  58.4076 301.7069 15.08849446 38375,6917.852,95.437,540.806,538.627,0.0
53010.0,STARLINK-4263,PAYLOAD,2023-03-13 21:17:52,15.08831196,9.13e-05,53.2153,315.4051,107.4316,252.6776,0.0001421,1.974e-05,0.0,0 STARLINK-4263,1 53010U 22076AA  23072.88741204  .00001974  00000-0  14210-3 0  9996,2 53010  53.2153 315.4051 0000913 107.4316 252.6776 15.08831196 38495,6917.907,95.438,540.404,539.141,0.0
53010.0,STARLINK-4263,PAYLOAD,2023-03-14 14:47:07,15.08840925,9.66e-05,53.2168,312.1401,91.6623,268.448,0.00027522,4.095e-05,0.0,0 STARLINK-4263,1 53010U 22076AA  23073.61605451  .00004095  00000-0  27522-3 0  9998,2 53010  53.2168 312.1401 0000966  91.6623 268.4480 15.08840925 38135,6917.878,95.437,540.411,539.074,0.0
53010.0,STARLINK-4263,PAYLOAD,2023-03-14 22:44:02,15.0885777,0.000119,53.2168,310.6588,117.4237,242.6877,0.00058995,9.118e-05,0.0,0 STARLINK-4263,1 53010U 22076AA  23073.94724921  .00009118  00000-0  58995-3 0  9997,2 53010  53.2168 310.6588 0001190 117.4237 242.6877 15.08857770 38659,6917.826,95.436,540.514,538.868,0.0
53010.0,STARLINK-4263,PAYLOAD,2023-03-15 22:34:49,15.08847302,0.0001191,53.2167,306.1935,88.9046,271.2082,0.00039151,5.95e-05,0.0,0 STARLINK-4263,1 53010U 22076AA  23074.94084879  .00005950  00000-0  39151-3 0  9992,2 53010  53.2167 306.1935 0001191  88.9046 271.2082 15.08847302 38336,6917.858,95.437,540.547,538.899,0.0
53010.0,STARLINK-4263,PAYLOAD,2023-03-16 01:45:35,15.08850543,0.0001188,53.2169,305.5983,83.231,276.8817,0.000535,8.239e-05,0.0,0 STARLINK-4263,1 53010U 22076AA  23075.07332813  .00008239  00000-0  53500-3 0  9998,2 53010  53.2169 305.5983 0001188  83.2310 276.8817 15.08850543 38824,6917.848,95.437,540.535,538.891,0.0
53010.0,STARLINK-4263,PAYLOAD,2023-03-17 00:01:00,15.08826374,0.0001072,53.2165,301.4353,96.2084,263.9031,0.00024442,3.603e-05,0.0,0 STARLINK-4263,1 53010U 22076AA  23076.00069806  .00003603  00000-0  24442-3 0  9994,2 53010  53.2165 301.4353 0001072  96.2084 263.9031 15.08826374 38965,6917.922,95.438,540.529,539.045,0.0
53010.0,STARLINK-4263,PAYLOAD,2023-03-17 23:51:47,15.08852633,0.0001235,53.2158,296.9751,88.7633,271.3501,0.00074383,0.00011574,0.0,0 STARLINK-4263,1 53010U 22076AA  23076.99429881  .00011574  00000-0  74383-3 0  9990,2 53010  53.2158 296.9751 0001235  88.7633 271.3501 15.08852633 39114,6917.842,95.437,540.561,538.852,0.0
